{"type":"FeatureCollection","features":[{"type":"Feature","properties":{"Id":0},"geometry":{"type":"MultiLineString","coordinates":[[[-9.166426300233525,38.75994349989264],[-9.165815399760845,38.759862700303415],[-9.165293300145663,38.75976339986107],[-9.164893600059543,38.75969309985675],[-9.163900100109458,38.75947380017578],[-9.162594000312822,38.75917830003857],[-9.162416100022938,38.759142599651284],[-9.162274199594606,38.75911650042622],[-9.162144299719614,38.75909689970223],[-9.162015499715494,38.759081800085085],[-9.161808400237419,38.759063700329534],[-9.16160389980007,38.75905589961013],[-9.16140789975475,38.75905689965623],[-9.161205000110613,38.75906649991907],[-9.161073299792918,38.75907899959623],[-9.160942300047054,38.7590943995869],[-9.16076320006158,38.75912239997882],[-9.160415399850763,38.75919090043976],[-9.160068200387116,38.75929659955847],[-9.159715300120979,38.759426199959194],[-9.159008899740911,38.75967009969537],[-9.158380400435078,38.759888199680745],[-9.157819899768526,38.760082599832174],[-9.15725930017652,38.76027709980838],[-9.157181999849342,38.76030450035245],[-9.156989199591862,38.7603727004398],[-9.156419200285825,38.76057140025],[-9.156080399590735,38.76070390006498],[-9.15580500020053,38.760823400179845],[-9.155142299677323,38.76111809992045],[-9.154336699578948,38.76148590015424],[-9.154203900289701,38.76154550002485],[-9.153968300396684,38.761632100241286],[-9.15375590031448,38.761698400061164],[-9.15363809991834,38.761731999632104],[-9.153490299937346,38.76177029995944],[-9.153372999564226,38.761796999931676],[-9.15323810035801,38.76182129961336],[-9.152927999727353,38.76186600041564],[-9.15261709959941,38.76190360017108],[-9.152312799595961,38.76192970029547],[-9.15195540002162,38.76194970031844],[-9.151569800405923,38.76195430035074],[-9.151279699798238,38.76193480035079],[-9.150991100159104,38.76190069985745],[-9.150581199962346,38.76183850004679],[-9.150222900166682,38.76176519990412],[-9.14988000036169,38.761664099918335],[-9.149578300298288,38.76154419960517],[-9.149328900308433,38.76142359961949],[-9.149116799700494,38.7613171999289],[-9.148854900033541,38.761168700275334],[-9.148469599892053,38.760912200137966],[-9.148328499860327,38.7608152001614],[-9.148247200248022,38.76074190001873],[-9.148136300349961,38.76061009987626],[-9.147999800350476,38.76041659994621],[-9.147851799820671,38.76021399977634],[-9.147738399807281,38.76003780010444],[-9.147650900268786,38.75986619956552],[-9.147322500233145,38.75927510036564],[-9.146025999800031,38.756861599683134],[-9.144707299602146,38.75439129961882],[-9.144417500267366,38.75384200000832],[-9.144030600231986,38.753106699914326],[-9.143643700196549,38.75237129999556],[-9.141593200066097,38.748628499705546],[-9.141246100427168,38.747985200256835],[-9.140906400410017,38.74733849957215],[-9.140156700371392,38.74597039961429],[-9.140053899767622,38.74582549994693],[-9.139877200072704,38.74562820038119],[-9.139666600433202,38.74548599957927],[-9.139413200258957,38.74537609972725],[-9.139166699683415,38.745305600073436],[-9.138897400394683,38.74527509956624],[-9.13552119974355,38.74515100031846],[-9.135272899624567,38.74511529993117],[-9.135046800169619,38.74504649999602],[-9.134818500073663,38.74496089982574],[-9.134630799871445,38.74484370017666],[-9.134486000028858,38.74471190003419],[-9.134389400250598,38.74459060037594],[-9.13432359955442,38.74447609959236],[-9.13370650005487,38.74315940038605],[-9.13354640004627,38.742711799709866],[-9.133491400207902,38.74216900039909],[-9.133436400369533,38.74162610036427],[-9.13342840000064,38.74148720007429],[-9.13343369970545,38.74135139974737],[-9.133808600086752,38.737666700158115],[-9.133824799574768,38.73749630021416],[-9.133874499708327,38.736971599759556],[-9.133923299620562,38.73645670011666],[-9.134265999776005,38.733357299999454],[-9.134333799665058,38.73270130032478],[-9.13440159955411,38.73204529975084],[-9.13482550039646,38.72775820008093],[-9.134901299755143,38.72697000006548],[-9.134977000188371,38.726181600400594],[-9.135110500049507,38.72485429998602],[-9.135209699767756,38.72386880040489],[-9.135278499702963,38.72317370000633],[-9.135347299638113,38.72247839995822],[-9.135812099848465,38.718004199933944],[-9.135895500277059,38.71753719998185],[-9.135978799981615,38.71707020002975],[-9.136113399713565,38.71525129960787],[-9.136174800026936,38.71499259972876],[-9.136285199902034,38.71480979993237],[-9.136451200362558,38.71462819983162],[-9.136596799702488,38.71450299981365],[-9.136705700407674,38.71441569992464],[-9.136848299609312,38.7143352996344],[-9.137058300300282,38.71424479995761],[-9.13730560037311,38.714168600400626],[-9.137916199572885,38.714039599847695],[-9.138526799672036,38.71391060019408],[-9.138789700284406,38.71384650011595],[-9.138896299624491,38.71381520011147],[-9.139015199891503,38.71377860040212],[-9.139141599605068,38.71373100018559],[-9.139312499572156,38.71365369985841],[-9.139369100203737,38.71362570036581],[-9.139495800290888,38.713556299683546],[-9.139619699889181,38.713475599919036],[-9.139722799967217,38.71340119990549],[-9.139803899929973,38.713335099735104],[-9.139948199749597,38.71319830026141],[-9.140054700164228,38.71307549963467],[-9.140107299712042,38.713007300446634],[-9.140174300103808,38.71290730033172],[-9.140251700255703,38.71276870041527],[-9.140296900181738,38.71266959962236],[-9.140342000283056,38.71254789976581],[-9.140377099923171,38.71241299966027],[-9.14039550005225,38.71231580003422],[-9.140406899858476,38.71221360017756],[-9.140412900135175,38.71211310003957],[-9.140414599853841,38.7119983996065],[-9.140411800264303,38.71188930015114],[-9.140377500121474,38.71120689997849],[-9.140333099692725,38.71040880022599],[-9.140288600338579,38.70961059974945],[-9.140245399605476,38.70904859991299],[-9.140245500329513,38.708716800440016],[-9.140317900250864,38.708360900035586],[-9.140466800102672,38.708069999930615],[-9.140657200069654,38.707818900222094],[-9.140748299594293,38.70772250009338],[-9.140786900295154,38.70767959973381],[-9.140871299870525,38.70759270004311],[-9.141000500072948,38.70747260008051],[-9.14111220036773,38.707378100219216],[-9.141248700367157,38.70726780016889],[-9.141401999702452,38.707146299961835],[-9.14158600009381,38.707000699722585],[-9.141754999793363,38.706875100405625],[-9.141875699603816,38.70679499958959],[-9.142057600078147,38.70669059999125],[-9.142165099639612,38.70663529977929],[-9.142242800165036,38.70660060033748],[-9.142386299587997,38.706539500397696],[-9.142518400104052,38.70648980026414],[-9.142628200131298,38.706454199701625],[-9.142822700107502,38.70640010008458],[-9.143119800138606,38.70633349989117],[-9.143325199898015,38.706290499706824],[-9.143588099611065,38.70623609971631],[-9.143798499601019,38.70619380010385],[-9.143933500430649,38.70617029991945],[-9.14410000001493,38.70614200005332],[-9.144239199779179,38.70612379957373],[-9.14437650017527,38.7061119995692],[-9.144488599769033,38.706103900274854],[-9.144640599583965,38.70609739997508],[-9.144910499619812,38.70609949989205],[-9.145334000263858,38.70610789955998],[-9.145967899998539,38.7061204001364],[-9.146224099762321,38.70612550019172],[-9.146827700437996,38.706136800173226]]]}}]}