{"type":"FeatureCollection","features":[{"type":"Feature","properties":{"Id":0},"geometry":{"coordinates":[[[-9.154180310073713,38.73412873975457],[-9.153908311219663,38.734290826933304],[-9.153532234151967,38.734467679940806],[-9.153032000026712,38.73462660043731],[-9.152634200208126,38.734744200284695],[-9.152466000005859,38.734793500219894],[-9.152203899790095,38.73486070026115],[-9.152064100178052,38.734893000311786],[-9.15186750028488,38.73492879962447],[-9.151734500446764,38.734948000150155],[-9.151529099788092,38.734968299647335],[-9.151303399632127,38.73498290014078],[-9.151049899633108,38.73499179983173],[-9.15069469980051,38.7350003002237],[-9.149968400121509,38.735017899956176],[-9.147860200387868,38.73507000038029],[-9.14682949998138,38.73509790004812],[-9.145803500331226,38.73512569989117],[-9.144805099975315,38.73515289988649],[-9.144337900373785,38.73516579976189],[-9.14297040026372,38.73520360006614],[-9.141531500278461,38.735243399563274],[-9.140130000399154,38.735281500241115],[-9.139698500285533,38.73529409974299],[-9.139474499848234,38.73530460022715],[-9.139299900070284,38.735318299599896],[-9.13910819968362,38.735339900416136],[-9.138900899656733,38.73537459985795],[-9.138776199661834,38.735401600203716],[-9.138598599745535,38.735448999871494],[-9.138454600299497,38.7354942996223],[-9.13824769957165,38.735569500032454],[-9.13810739993653,38.73562690016138],[-9.13786360002507,38.73573589979202],[-9.137497399685174,38.73590169970373],[-9.137216500041404,38.7360284996156],[-9.137030600281946,38.73609909999351],[-9.136874000434716,38.7361521995644],[-9.136672400311,38.7362120998086],[-9.13647850018259,38.73626310036184],[-9.136200099754774,38.73633159992346],[-9.136008699741637,38.73637350023688],[-9.135756900360605,38.73642519956337],[-9.135500099849708,38.73647189955858],[-9.135374499633429,38.73649269997816],[-9.1352357998922,38.736515499590666],[-9.135117399648209,38.736534799941126],[-9.134951499911722,38.73656090006551],[-9.134660199608504,38.73660829973329],[-9.134392400388947,38.73665179994066],[-9.133213200328896,38.736845600244294],[-9.132445700008986,38.736969300193095],[-9.13167830041317,38.7370930001419],[-9.129626999886113,38.737382900200714],[-9.12709059965141,38.737774599917884],[-9.126393800433505,38.73795250020777],[-9.125800600417335,38.73823289982852],[-9.123942199972532,38.739445300160526],[-9.122279199725256,38.74056939965811],[-9.121993600224414,38.74076219991565],[-9.121604000424213,38.741018299854716],[-9.121438699636258,38.74112700001109],[-9.12131120005182,38.74121579996927],[-9.121142599651193,38.74134219968283],[-9.121004700306628,38.74145890020816],[-9.120895400302459,38.74156649959434],[-9.120776900233693,38.74169900030864],[-9.120666299809841,38.74184420034965],[-9.120573200193007,38.741987799597325],[-9.120483400188732,38.74214009978584],[-9.120404699617154,38.74228779994206],[-9.120329199732737,38.742434500052184],[-9.120262800088085,38.742564399927176],[-9.12005929969689,38.74318410026609],[-9.11961980011364,38.744657300394124],[-9.119418700012943,38.74519920038284],[-9.119078400147998,38.745765599702736],[-9.118255300141925,38.746595299833245],[-9.117917200018724,38.7470416000898],[-9.117646399761497,38.74752929973744],[-9.114706499805095,38.753014299970005],[-9.113853199665414,38.75482229970942],[-9.113574499763331,38.755544100080215],[-9.11310949990343,38.75645089998909],[-9.113025800000628,38.75667669996977],[-9.112973300277531,38.75685090044874],[-9.1129450004114,38.756969899641206],[-9.112922100074798,38.75712419992192],[-9.11289649997343,38.7573360999811],[-9.112885799839717,38.757767799744215],[-9.112916599821176,38.75856240023461],[-9.112905899687462,38.758728700169456],[-9.112877900194917,38.758919199961156],[-9.112835200384154,38.75909920016801],[-9.112776499835547,38.75927510036564],[-9.112723199715845,38.75940080040664],[-9.112648400403316,38.7595497002585],[-9.112582999905499,38.75966320009667],[-9.112517399758133,38.75976649982414],[-9.111983000115345,38.760594100037736],[-9.11144859957318,38.76142180007605],[-9.11126779986904,38.76169549974759],[-9.11112479956978,38.761893400060444],[-9.110988799593372,38.762047300142854],[-9.110836899603214,38.762197000391325],[-9.110667600429394,38.76233000022938],[-9.110547700116228,38.76241310028439],[-9.110416999844631,38.762493200201106],[-9.110270399559226,38.762574200339145],[-9.110085200371657,38.76265940031112],[-9.109854499985147,38.762747800071],[-9.109642400276527,38.762812300347434],[-9.10945050024037,38.762860100213516],[-9.10924539995517,38.76289750031941],[-9.109014800292755,38.76292239984895],[-9.108777099583449,38.762934900425364],[-9.108262699963575,38.76294120017627],[-9.104055800035098,38.76295040024081],[-9.102996199914628,38.76295269980733],[-9.102401300179793,38.762958999558236],[-9.102167700379027,38.76297579979337],[-9.101933999854168,38.76301269987624],[-9.101721999970266,38.76306220036031],[-9.101516700035631,38.763125300392346],[-9.101304299953426,38.76320869992162],[-9.101145799838719,38.763295300138054],[-9.100951600236101,38.76342050015603],[-9.10079889984928,38.763539500247816],[-9.100623100375742,38.76370509961072],[-9.10054730011774,38.76380740019141],[-9.10047850018259,38.76389679999738],[-9.100404199993761,38.76402219966485],[-9.10032899958361,38.76416560016236],[-9.100264199832907,38.764285700125015],[-9.100197900013029,38.764482800041264],[-9.100162900197631,38.76466140000366],[-9.10011990001334,38.76491470035319],[-9.100076999653766,38.76519119961421],[-9.099960999700329,38.76649110038403],[-9.09989009984821,38.76721589999386],[-9.099831800397226,38.76781110010222],[-9.099735199719646,38.76879890014919],[-9.099332100196193,38.77291979970903],[-9.099326699767346,38.77317069976806],[-9.099328000187029,38.7732756002888],[-9.099347900385226,38.7734126003113],[-9.0993769997487,38.77355499986339],[-9.099415200251258,38.77367009959545],[-9.099468000347883,38.773797799728754],[-9.09955919969724,38.77396259959437],[-9.099685200111821,38.774137300096356],[-9.09974940001473,38.77421399967642],[-9.099864399922069,38.77432829991119],[-9.100008599916919,38.77445109963861],[-9.100167000206852,38.774563299956355],[-9.100364100123102,38.7746766999698],[-9.100546200246924,38.7747609997204],[-9.100771100006227,38.774842499881515],[-9.10096519978407,38.774896100374804],[-9.101151399917114,38.7749331002824],[-9.10136310032675,38.774960999950224],[-9.10157649955579,38.7749743998487],[-9.101760599771808,38.774977499811826],[-9.101917499992567,38.774971299885635],[-9.102362599654214,38.77495139968738],[-9.103002999688613,38.77492090007951],[-9.103918299989516,38.77487720022265],[-9.104076499730638,38.77487019989985],[-9.104647900180396,38.774844800347296],[-9.1052434995878,38.77481760035204],[-9.105650700019737,38.77480189998772],[-9.1060135998477,38.77479980007075],[-9.106251199832968,38.774813500342816],[-9.106551899850274,38.77485150029656],[-9.106836500204281,38.77490750018103],[-9.107209399594069,38.775009700037685],[-9.107636199850674,38.77515880043836],[-9.108215800318874,38.77537109979647],[-9.10868779960225,38.77554249978658],[-9.10924310038871,38.77574429955985],[-9.109683099995038,38.775905399614544],[-9.110373499637262,38.77616149955361],[-9.110865900041233,38.776334600161704],[-9.111023999957581,38.776383300249165],[-9.111229999564785,38.77643820026276],[-9.111438299637769,38.77648169957081],[-9.111619799913797,38.77650960013801],[-9.111869100078877,38.77653439984272],[-9.112091300073416,38.776539499898036],[-9.112336799703485,38.77653020000878],[-9.11255930007161,38.77650850026714],[-9.112860400287218,38.7764588999583],[-9.113022700037504,38.776416700170614],[-9.113187400078402,38.776367000037055],[-9.11338480036818,38.7762977999036],[-9.11366379974453,38.77617250006091],[-9.113908999900389,38.77604260018592],[-9.11431470026315,38.775808799836284],[-9.114700700077208,38.775583099680375],[-9.115037399956009,38.77538339982408],[-9.115530800406077,38.77509649990361],[-9.116235099969856,38.77468699990516],[-9.11657959966874,38.77448630000282],[-9.11698599970407,38.774244900381916],[-9.117361599757999,38.77401029963568],[-9.117735300443712,38.77375969995023],[-9.119486800275581,38.77258969995472],[-9.120283399958907,38.77205750005362],[-9.120587500312865,38.771853800012934],[-9.120845600344126,38.77167129969081],[-9.121055600135776,38.77151490039239],[-9.121281499941233,38.77133990041614],[-9.121508899815808,38.77114800037998],[-9.121683999616835,38.77099789993321],[-9.121896500423134,38.77079989979558],[-9.122129600200822,38.770572200446736],[-9.122517299733545,38.77019050029139],[-9.12277019988477,38.76994709967897],[-9.122987399648707,38.769764200057864],[-9.123118699768156,38.7696617996524],[-9.123270199560011,38.76955730022928],[-9.123436600218895,38.769451899685464],[-9.123642300351833,38.76933789982428],[-9.12387080009728,38.769229400216716],[-9.124124599570564,38.76912199958065],[-9.124278200178765,38.76906580004669],[-9.124458300210335,38.769012999950064],[-9.124697300440005,38.768948800047156],[-9.1249917996318,38.768887700107314],[-9.125219900078264,38.76885089984921],[-9.125701999647504,38.768783900356766],[-9.12665839986522,38.76865889998828],[-9.127635999801498,38.76853029963365],[-9.128282999960447,38.7684449998369]]],"type":"MultiLineString"}}]}