{"type":"FeatureCollection","features":[{"type":"Feature","properties":{"Id":0},"geometry":{"coordinates":[[[-9.122427800102855,38.7136787999367],[-9.123392500163732,38.712776600060124],[-9.12411870001796,38.71225389969777],[-9.124845100420998,38.71181349989314],[-9.125482899616088,38.71147959960388],[-9.125738399707359,38.711382300153105],[-9.126138699641217,38.71121569984473],[-9.126296500083356,38.71114320009866],[-9.12648590000424,38.711057599928324],[-9.126708699846574,38.71094779990108],[-9.126929999619733,38.710831899772415],[-9.127177600066148,38.71069610034482],[-9.127406099811594,38.71056309960744],[-9.127639099764622,38.71041850031361],[-9.127882000353964,38.710262699963664],[-9.128245599854495,38.710026900421155],[-9.12844560008432,38.70989110009424],[-9.128658000166524,38.70975310002558],[-9.128948800446722,38.70956300043218],[-9.129197499864688,38.70940109998082],[-9.129361500233017,38.709297999902844],[-9.12943459982688,38.709253600373415],[-9.129519600149365,38.709202099797096],[-9.129632699789227,38.70913420008333],[-9.12983039955327,38.70902010039737],[-9.129980599824762,38.70894049960441],[-9.13014229972731,38.708856900425644],[-9.13047700041318,38.708694699600755],[-9.130802400310472,38.708548200039445],[-9.131128400055559,38.70840149992932],[-9.131786100348222,38.708105700317844],[-9.13230579967285,38.70788190042941],[-9.132995499642561,38.707590000278344],[-9.133572599995432,38.70734630019166],[-9.134368400181472,38.707013300123776],[-9.135285400200985,38.70662840018059],[-9.13542600020969,38.706568800309924],[-9.135692300259393,38.706458799733866],[-9.135825399922226,38.706408899950816],[-9.135940399829565,38.70636760038451],[-9.13607649963069,38.70632300030627],[-9.136198499860825,38.706288200140364],[-9.136295900035691,38.706263100062074],[-9.136394699555694,38.70624109994685],[-9.13649740033469,38.70622129957337],[-9.136627900057476,38.70620090025142],[-9.136778200153742,38.70618429966572],[-9.136926699807304,38.70617449975339],[-9.137070399779077,38.70617070011775],[-9.137213900101358,38.706172700210004],[-9.137347800160796,38.70618090022839],[-9.137474400423173,38.70619320025605],[-9.137598100371974,38.70621010031596],[-9.137760699596583,38.70623980042649],[-9.137921199803486,38.706276699610044],[-9.13806649966915,38.70631769970214],[-9.138202100346632,38.706362899628175],[-9.138338799995552,38.706415099877006],[-9.138458099561603,38.7064695996923],[-9.138576999828615,38.706528499890396],[-9.13872500035842,38.706612699816276],[-9.138855099882903,38.70669880000969],[-9.138985899979275,38.70679079975565],[-9.13909250021868,38.7068760995524],[-9.139282199613774,38.7070363002851],[-9.139429600295784,38.70721469969868],[-9.139552999871,38.7074019997026],[-9.139686300082644,38.7076568001213],[-9.139793099971541,38.70796000025388],[-9.13989179966677,38.70833689982811],[-9.139962599694172,38.70876110014473],[-9.140000399998428,38.70962039966179],[-9.140044800427177,38.710418600138325],[-9.140089299781323,38.71121669989083],[-9.140109799827371,38.71158529962196],[-9.14013399968428,38.711913900206355],[-9.140140300334565,38.71196249956978],[-9.140170299919362,38.71219439965188],[-9.140196300219031,38.712351100223145],[-9.140237599785337,38.712549399834984],[-9.140256699586985,38.71263480035583],[-9.140288200140276,38.71275740043376],[-9.140330499752736,38.7129032003225],[-9.140412900135175,38.71316090015546],[-9.140470800287176,38.71332000011796],[-9.140549800332963,38.713517900430816],[-9.140639200138935,38.71371600039316],[-9.140733799824943,38.713907299682205],[-9.141161600127703,38.71456459977651],[-9.141705699858107,38.71529810032712],[-9.14198620020295,38.71562360004913],[-9.142309799657482,38.7159967998125],[-9.1426575998683,38.71639859981559],[-9.142777600006184,38.71655590023465],[-9.14461820016976,38.718755900064764],[-9.144830999550948,38.719010199561126],[-9.145286800245572,38.719524299706734],[-9.148439600307256,38.7230883003848],[-9.148885500365509,38.72368089965386],[-9.14915040017081,38.72415880028848],[-9.149311299676697,38.7245120998536],[-9.149339100419127,38.72460399977484],[-9.149430000294217,38.724905500188754],[-9.149467299676076,38.725069499657764],[-9.149618400169004,38.72573380007486],[-9.149624699919912,38.72586539966852],[-9.149577400076907,38.7265246000303],[-9.149566399569665,38.72673779960979],[-9.149544299629667,38.72792740032929],[-9.149666899707597,38.728613899611844],[-9.15008060043931,38.72979719968106],[-9.150651300317236,38.73045459960014],[-9.153607700135183,38.73393629972048],[-9.153891000069564,38.73426979981144],[-9.154437000067446,38.73491090041779],[-9.154923300369944,38.7354848000835],[-9.155420799929914,38.736110899998096],[-9.155659899984357,38.736311699725206],[-9.156148700402127,38.736730399788144],[-9.156314100115594,38.736847899810755],[-9.156443300318017,38.73693349998109],[-9.156581500036168,38.73701640038661],[-9.156723299740463,38.737091000049645],[-9.156843799901424,38.73714900002636],[-9.15691839956446,38.7371807002292],[-9.157031099905282,38.737224599735555],[-9.15724090004744,38.73728940038558],[-9.157433099557863,38.737335700182484],[-9.157650900068916,38.737382400177694],[-9.157963099717222,38.737442000048304],[-9.15912649958824,38.737661199904494],[-9.159247300122729,38.73768400041632],[-9.16061139989614,38.73794099967745],[-9.162677800040399,38.73833080002646],[-9.163706399630598,38.73857760007621],[-9.165265199928967,38.73887460028266],[-9.166211200386556,38.739151599566696],[-9.16671599974353,38.739449499994464],[-9.16789290023712,38.740922399749024],[-9.16891319998416,38.74208819991054],[-9.169180900278263,38.74257619993176],[-9.16928770016716,38.74323690036272],[-9.169354699659607,38.744745799978716],[-9.169404700166751,38.74495469989955],[-9.169493900323175,38.74531949999499],[-9.16981299957024,38.7458998001357],[-9.170498999729034,38.746444600438],[-9.172145799588918,38.74742290004684],[-9.17259860014525,38.74776839979188],[-9.173036200360286,38.748249699863834],[-9.173823000131279,38.74940139955498],[-9.174120500360743,38.749627200434986],[-9.174545500174645,38.74974850009323],[-9.17567840043779,38.74983720022664],[-9.17979460014061,38.749895399852846],[-9.18173630028997,38.750070899852176],[-9.183247100173503,38.750304399828224],[-9.18435789959733,38.75078009982178],[-9.185997899683287,38.75157470031223],[-9.187009100089824,38.75212700006108],[-9.18847959955383,38.75293799968898],[-9.18929310019638,38.75338029976109],[-9.189949500069304,38.7537371003869],[-9.190402100076824,38.75390910022486],[-9.191670799767564,38.75459520020837],[-9.192274299719088,38.75498210024381],[-9.192818000150567,38.75525629993837],[-9.193498000032605,38.755548499563645],[-9.193736799713463,38.755662500324206],[-9.19394199982338,38.755830900175965],[-9.194117599647484,38.756005499953915],[-9.194222199794638,38.756194800050025],[-9.194265199978929,38.756372599615815],[-9.19427049968374,38.756608999905495],[-9.194223600039038,38.756783599683445],[-9.194179300334383,38.75691749974288],[-9.19403720025656,38.757286600396355],[-9.193817600202067,38.757691700012],[-9.193529499686633,38.75818270017152],[-9.192743699961738,38.759241900093684],[-9.192311500175549,38.75982459962563],[-9.192195500222113,38.760011500330506],[-9.192146700309934,38.760105799642986],[-9.192097100001092,38.76022469991],[-9.192055400236484,38.760345500444544],[-9.192015800388845,38.760493599899746],[-9.191997199710954,38.76059519990861],[-9.19198510023216,38.7606961002449],[-9.19197940032899,38.760848699907626],[-9.191984799858574,38.76096130042373],[-9.192004899706319,38.76110529986977],[-9.192046299996719,38.76127140015507],[-9.192100100139442,38.76141300020987],[-9.192158299765651,38.76153770020477],[-9.19224230004204,38.76168040013039],[-9.192337999598976,38.761812700295934],[-9.192512200077942,38.76200759957112],[-9.192632200215826,38.762121100308605],[-9.192737000012471,38.76220919969484],[-9.192881600205624,38.76231599958379],[-9.193030300407997,38.762410699993836],[-9.193195000448839,38.76249940012724],[-9.193326600042496,38.7625595998457],[-9.193500199774348,38.76262589966558],[-9.19367290018414,38.76267869976226],[-9.193845900068197,38.76271900018179],[-9.193976499615701,38.76274239964209],[-9.194110899698217,38.7627601000986],[-9.194246399651604,38.76277309979878],[-9.194448200324132,38.76278129981716],[-9.19463179961781,38.76277659996015],[-9.1948445000736,38.76275740033378],[-9.19505359964387,38.76272799969746],[-9.195247899970582,38.76268749962844],[-9.195487699697537,38.76262429977169],[-9.196031999976753,38.762465500182714],[-9.196844800047415,38.76222959991617],[-9.197657699942852,38.761993699649565],[-9.19813869964122,38.761860299613204],[-9.198611199846937,38.76171649981666],[-9.199927999777344,38.76126420018272],[-9.200180300080717,38.76117530039983],[-9.200329799780377,38.76111959998963],[-9.200642700000571,38.76098550028064],[-9.20115820039058,38.76076630042445],[-9.202057800327168,38.76038810043053],[-9.202387700431984,38.76025149970701],[-9.202483900011941,38.76021740011299],[-9.202588199785566,38.76018410001626],[-9.20269580007107,38.76015859973961],[-9.202803799655555,38.76013859971664],[-9.202913300208593,38.76012359992427],[-9.203019000226618,38.7601154997306],[-9.203123200175526,38.76011150044542],[-9.203262099566189,38.76011430003496],[-9.203394399731735,38.76012359992427],[-9.20353050043218,38.76013530010408],[-9.203648499578549,38.760148100154765],[-9.20376479990557,38.76016409999329],[-9.203851199573137,38.76017899996094],[-9.204559600045457,38.760334199563715],[-9.205267899793682,38.76048930024109],[-9.206744000235403,38.76073470004644],[-9.207748099595051,38.76077019988486],[-9.20904739961776,38.76069200023568],[-9.20994000013087,38.76057279959508],[-9.210824700099806,38.76040350042126],[-9.211220900024443,38.760327100315465],[-9.218330100153935,38.75842440016601],[-9.219367600334465,38.75816670033299],[-9.219843900175817,38.75798060002472],[-9.220674899826747,38.75763289963868],[-9.221306800368495,38.757270300184246],[-9.222252000429421,38.756577100053164],[-9.223348999756467,38.7538065001699],[-9.223855899929788,38.75265190016512],[-9.224114900182428,38.7521978999132]]],"type":"MultiLineString"}}]}